[{"OBJECT_NAME":"239ALFEROV (RS61S)","OBJECT_ID":"2025-155F","EPOCH":"2026-03-09T21:46:33.382848","MEAN_MOTION":15.29933217,"ECCENTRICITY":0.00084878,"INCLINATION":97.4469,"RA_OF_ASC_NODE":37.6373,"ARG_OF_PERICENTER":151.5904,"MEAN_ANOMALY":208.58,"EPHEMERIS_TYPE":0,"CLASSIFICATION_TYPE":"U","NORAD_CAT_ID":64881,"ELEMENT_SET_NO":999,"REV_AT_EPOCH":6561,"BSTAR":0.00067233359,"MEAN_MOTION_DOT":0.00019457,"MEAN_MOTION_DDOT":0},{"OBJECT_NAME":"STARLINK-35022","OBJECT_ID":"2025-192F","EPOCH":"2026-03-09T17:55:17.144544","MEAN_MOTION":15.31027796,"ECCENTRICITY":8.084e-5,"INCLINATION":53.1589,"RA_OF_ASC_NODE":232.0428,"ARG_OF_PERICENTER":37.8679,"MEAN_ANOMALY":322.2379,"EPHEMERIS_TYPE":0,"CLASSIFICATION_TYPE":"U","NORAD_CAT_ID":65409,"ELEMENT_SET_NO":999,"REV_AT_EPOCH":2939,"BSTAR":0.0011137648,"MEAN_MOTION_DOT":0.00033635,"MEAN_MOTION_DDOT":0}]
